     3.02           N: GNSS NAV DATA    G: GPS              RINEX VERSION / TYPE
Spider v7.5.1.8670  SMO                 20240709 220354 UTC PGM / RUN BY / DATE
GPSA   1.4901D-08  2.2352D-08 -5.9605D-08 -1.1921D-07       IONOSPHERIC CORR
GPSB   1.1674D+05  1.6384D+05 -6.5536D+04 -3.9322D+05       IONOSPHERIC CORR
GPUT  9.3132257462D-10 8.881784197D-16 405504 2322          TIME SYSTEM CORR
    18    18  2185     7                                    LEAP SECONDS
                                                            END OF HEADER
G16 2024 07 09 22 00 00-2.412036992610D-04 1.068656274583D-11 0.000000000000D+00
     1.100000000000D+01 2.156250000000D+00 4.653765373064D-09 2.843429790024D+00
    -2.980232238770D-08 1.381949731149D-02 5.541369318962D-06 5.153580266953D+03
     2.520000000000D+05 3.539025783539D-08-7.377834480763D-01-1.452863216400D-07
     9.614505673153D-01 2.720312500000D+02 8.380966989830D-01-7.906757915066D-09
    -1.442917313410D-10 1.000000000000D+00 2.322000000000D+03 0.000000000000D+00
     2.000000000000D+00 0.000000000000D+00-1.024454832077D-08 1.100000000000D+01
     2.447400000000D+05                   
G17 2024 07 09 21 59 44 6.806338205934D-04-7.275957614183D-12 0.000000000000D+00
     5.000000000000D+00 1.125000000000D+01 3.970522577390D-09 1.884291923568D+00
     6.202608346939D-07 1.340092427563D-02 9.715557098389D-06 5.153761552811D+03
     2.519840000000D+05 2.644956111908D-07 2.828754837450D-01-6.519258022308D-08
     9.686280471776D-01 1.925312500000D+02-1.315766243745D+00-7.584601391386D-09
    -2.760829342918D-10 1.000000000000D+00 2.322000000000D+03 0.000000000000D+00
     2.000000000000D+00 0.000000000000D+00-1.117587089539D-08 5.000000000000D+00
     2.447100000000D+05                   
G18 2024 07 09 14 00 00-6.346385926008D-04-4.206412995700D-12 0.000000000000D+00
     1.100000000000D+01 9.590625000000D+01 4.304465228699D-09 2.045404156642D+00
     5.101785063744D-06 4.330197465606D-03 6.571412086487D-06 5.153610073090D+03
     2.232000000000D+05-5.029141902924D-08 1.288190818730D+00 1.583248376846D-07
     9.743781607957D-01 2.626875000000D+02-3.046758823792D+00-8.036406207168D-09
     1.578637220945D-10 1.000000000000D+00 2.322000000000D+03 0.000000000000D+00
     2.000000000000D+00 0.000000000000D+00-8.381903171539D-09 2.670000000000D+02
     2.159400000000D+05                   
G19 2024 07 09 06 00 00 5.078376270831D-04 5.456968210638D-12 0.000000000000D+00
     1.000000000000D+01 4.575000000000D+01 4.154101507226D-09 1.735727323187D+00
     2.516433596611D-06 9.981540963054D-03 1.014582812786D-05 5.153721191406D+03
     1.944000000000D+05 1.434236764908D-07 3.275994114990D-01 8.195638656616D-08
     9.678370166508D-01 1.842812500000D+02 2.587087052526D+00-7.689963332780D-09
    -6.146684827790D-10 1.000000000000D+00 2.322000000000D+03 0.000000000000D+00
     2.000000000000D+00 0.000000000000D+00-1.536682248116D-08 1.000000000000D+01
     1.871400000000D+05                   
G20 2024 07 09 10 00 00 3.729560412467D-04-4.547473508865D-13 0.000000000000D+00
     8.400000000000D+01-5.937500000000D+00 4.824129540282D-09 3.239392943319D-01
    -2.328306436539D-07 3.678619978018D-03 1.534819602966D-06 5.153556447983D+03
     2.088000000000D+05 7.078051567078D-08 2.139991032702D+00 1.322478055954D-07
     9.543027378767D-01 3.474687500000D+02-2.582716434083D+00-8.521426231312D-09
    -5.143071385438D-11 1.000000000000D+00 2.322000000000D+03 0.000000000000D+00
     2.000000000000D+00 0.000000000000D+00-8.381903171539D-09 8.400000000000D+01
     2.015400000000D+05                   
G21 2024 07 09 22 00 00 1.099952496588D-04-2.501110429876D-12 0.000000000000D+00
     1.160000000000D+02 9.246875000000D+01 4.279463894363D-09 1.748129464289D+00
     4.788860678673D-06 2.522791689262D-02 7.735565304756D-06 5.153678279877D+03
     2.520000000000D+05 2.235174179077D-07 1.177764826221D+00 2.533197402954D-07
     9.614214757264D-01 2.263125000000D+02-5.501871780758D-01-7.797110512797D-09
    -7.071723068242D-11 1.000000000000D+00 2.322000000000D+03 0.000000000000D+00
     2.000000000000D+00 0.000000000000D+00-1.024454832077D-08 1.160000000000D+02
     2.447400000000D+05                   
G22 2024 07 09 04 00 00-3.733020275831D-05-4.661160346586D-12 0.000000000000D+00
     1.230000000000D+02-7.406250000000D+00 5.025209137699D-09-7.443677848775D-01
    -3.203749656677D-07 1.423725811765D-02 5.912035703659D-06 5.153689842224D+03
     1.872000000000D+05-1.471489667892D-07-7.339566343199D-01-8.568167686462D-08
     9.607877835020D-01 2.666562500000D+02-1.132114305174D+00-8.436780163379D-09
    -2.435815715796D-10 1.000000000000D+00 2.322000000000D+03 0.000000000000D+00
     2.000000000000D+00 0.000000000000D+00-1.117587089539D-08 1.230000000000D+02
     1.799400000000D+05                   
G23 2024 07 09 14 00 00 2.697240561247D-04 8.981260180008D-12 0.000000000000D+00
     3.900000000000D+01-2.512500000000D+01 4.361967231858D-09 8.260152017287D-01
    -1.236796379089D-06 4.363381420262D-03 1.862645149231D-06 5.153594779968D+03
     2.232000000000D+05 5.774199962616D-08 2.289636881687D+00 2.048909664154D-08
     9.798221529542D-01 3.505625000000D+02-2.965597901811D+00-8.274630758365D-09
    -2.446530478206D-10 1.000000000000D+00 2.322000000000D+03 0.000000000000D+00
     2.000000000000D+00 0.000000000000D+00-8.381903171539D-09 5.510000000000D+02
     2.159400000000D+05                   
G24 2024 07 09 14 00 00-4.823305644095D-04-1.818989403546D-12 0.000000000000D+00
     3.600000000000D+01 2.968750000000D+00 4.859845414984D-09 2.143998954254D+00
     3.725290298462D-08 1.546679565217D-02 9.335577487946D-06 5.153712099075D+03
     2.232000000000D+05-7.823109626770D-08-1.969303566312D+00-3.818422555923D-07
     9.337627404519D-01 1.850312500000D+02 9.867287632936D-01-8.059978462427D-09
     5.260933355622D-10 1.000000000000D+00 2.322000000000D+03 0.000000000000D+00
     2.000000000000D+00 0.000000000000D+00 2.328306436539D-09 3.600000000000D+01
     2.159400000000D+05                   
G25 2024 07 09 16 00 00 4.983362741768D-04 3.410605131648D-13 0.000000000000D+00
     8.600000000000D+01 4.000000000000D+00 5.082711584947D-09 1.403796162979D+00
     8.754432201385D-08 1.161127130035D-02 5.304813385010D-06 5.153759185791D+03
     2.304000000000D+05-2.589076757431D-07-8.424814258073D-01-9.313225746155D-09
     9.498859804610D-01 2.707500000000D+02 1.089814817424D+00-8.457852196386D-09
     1.428630976540D-12 1.000000000000D+00 2.322000000000D+03 0.000000000000D+00
     2.000000000000D+00 0.000000000000D+00 5.122274160385D-09 8.600000000000D+01
     2.231400000000D+05                   
G26 2024 07 09 20 00 00 1.228791661561D-04-6.821210263297D-12 0.000000000000D+00
     1.020000000000D+02 1.206250000000D+01 5.393796076447D-09 2.733055039147D+00
     5.699694156647D-07 8.938247687183D-03 5.286186933517D-06 5.153657424927D+03
     2.448000000000D+05-5.215406417847D-08-9.058940939880D-01-1.136213541031D-07
     9.306089831195D-01 2.624375000000D+02 5.411227226077D-01-8.392849970562D-09
     3.071556550771D-11 1.000000000000D+00 2.322000000000D+03 0.000000000000D+00
     2.000000000000D+00 0.000000000000D+00 6.519258022308D-09 1.020000000000D+02
     2.375400000000D+05                   
G27 2024 07 09 22 00 00-3.071222454309D-05-1.023181539495D-12 0.000000000000D+00
     2.300000000000D+01 3.593750000000D+00 4.283392751603D-09 1.970956346289D+00
     1.154839992523D-07 1.253161614295D-02 9.628012776375D-06 5.153683521271D+03
     2.520000000000D+05-2.123415470123D-07 2.143520702927D-01-1.620501279831D-07
     9.618698001380D-01 1.945000000000D+02 7.980915056575D-01-7.911043375941D-09
    -3.785871893758D-10 1.000000000000D+00 2.322000000000D+03 0.000000000000D+00
     2.000000000000D+00 0.000000000000D+00 1.862645149231D-09 2.300000000000D+01
     2.447400000000D+05                   
G28 2024 07 09 18 00 00-3.242390230298D-04-1.602984411875D-11 0.000000000000D+00
     6.700000000000D+01 6.687500000000D+00 4.394111741135D-09 2.018803688991D+00
     3.315508365631D-07 3.027470083907D-04 9.307637810707D-06 5.153678846359D+03
     2.376000000000D+05 7.450580596924D-08-1.904188405273D+00-5.587935447693D-09
     9.611081230626D-01 2.017187500000D+02 1.531082968071D+00-7.899615184215D-09
     3.635865775120D-10 1.000000000000D+00 2.322000000000D+03 0.000000000000D+00
     2.000000000000D+00 0.000000000000D+00-9.313225746155D-09 3.230000000000D+02
     2.303400000000D+05                   
G29 2024 07 09 18 00 00-5.903709679842D-04 1.932676241267D-12 0.000000000000D+00
     5.400000000000D+01 1.406250000000D+01 4.146958332285D-09-2.030347809622D-01
     6.705522537231D-07 3.014186047949D-03 9.814277291298D-06 5.153569194794D+03
     2.376000000000D+05 2.421438694000D-08 2.980898420099D-01-5.587935447693D-08
     9.710711642575D-01 1.920000000000D+02 2.604766435069D+00-7.827111403458D-09
    -2.646538821427D-10 1.000000000000D+00 2.322000000000D+03 0.000000000000D+00
     2.000000000000D+00 0.000000000000D+00-9.778887033463D-09 5.400000000000D+01
     2.303400000000D+05                   
G30 2024 07 09 22 00 00-3.605461679399D-04 6.480149750132D-12 0.000000000000D+00
     2.600000000000D+01 1.340625000000D+01 5.039495487580D-09-1.089791624321D+00
     5.792826414108D-07 7.180524175055D-03 8.925795555115D-06 5.153617296219D+03
     2.520000000000D+05 1.657754182816D-07-1.871755286166D+00 3.911554813385D-08
     9.351503080096D-01 1.933437500000D+02-2.449259236564D+00-8.214271041140D-09
     2.382242181298D-10 1.000000000000D+00 2.322000000000D+03 0.000000000000D+00
     2.000000000000D+00 0.000000000000D+00 4.190951585770D-09 2.600000000000D+01
     2.447400000000D+05                   
